IRIDIUM 150             
1 43257U 18030J   24096.87994793  .00000037  00000+0  61355-5 0  9994
2 43257  86.3919 265.7393 0002281  85.3910 274.7546 14.34217656315163
IRIDIUM 143             
1 43258U 18030K   24097.20976098 -.00000019  00000+0 -13684-4 0  9994
2 43258  86.3923 265.6623 0001964  80.1692 279.9725 14.34217698315174
IRIDIUM 161             
1 43478U 18047C   24096.87251626  .00000464  00000+0  13198-3 0  9992
2 43478  86.4471  63.7668 0002269  89.0007 271.1453 14.43275365309417
IRIDIUM 152             
1 43479U 18047D   24096.90340266  .00000336  00000+0  11309-3 0  9996
2 43479  86.3944  63.6133 0002274  84.2297 275.9158 14.34216047307494
IRIDIUM 147             
1 43480U 18047E   24097.18881496  .00000333  00000+0  11196-3 0  9995
2 43480  86.3947  63.4849 0002312  92.5942 267.5518 14.34221274307533
IRIDIUM 110             
1 43481U 18047F   24097.19516320  .00000164  00000+0  51541-4 0  9999
2 43481  86.3950  63.5534 0002592  93.6139 266.5353 14.34216732307528
IRIDIUM 162             
1 43482U 18047G   24096.86622618  .00000427  00000+0  12086-3 0  9993
2 43482  86.4469  63.6703 0002377  93.6026 266.5447 14.43273301309408
IRIDIUM 160             
1 43569U 18061A   24096.86193249  .00000322  00000+0  10789-3 0  9990
2 43569  86.4011  32.0620 0001919  93.8090 266.3325 14.34218054298379
